STARLINK-34311          
1 64206U 25117D   26068.24299080  .00033166  00000+0  11270-2 0  9991
2 64206  53.1622  41.9398 0001292  81.7614 278.3534 15.30197645 44487
KUIPER-00222            
1 67782U 26030U   26068.67636257  .00055223  00000+0  17317-2 0  9992
2 67782  51.8817 219.7147 0012800  40.1845 320.0084 15.32445377  5087
